{
    "links": {
        "self": "http://www.neowsapp.com/rest/v1/neo/3789541?api_key=iIulBulltgU6a56xZRHN4H3l9WmuAYTsLGpBGhQ2"
    },
    "id": "3789541",
    "neo_reference_id": "3789541",
    "name": "(2017 WH2)",
    "designation": "2017 WH2",
    "nasa_jpl_url": "http://ssd.jpl.nasa.gov/sbdb.cgi?sstr=3789541",
    "absolute_magnitude_h": 24.3,
    "estimated_diameter": {
        "kilometers": {
            "estimated_diameter_min": 0.0366906138,
            "estimated_diameter_max": 0.0820427065
        },
        "meters": {
            "estimated_diameter_min": 36.6906137531,
            "estimated_diameter_max": 82.0427064882
        },
        "miles": {
            "estimated_diameter_min": 0.0227984834,
            "estimated_diameter_max": 0.0509789586
        },
        "feet": {
            "estimated_diameter_min": 120.3760332259,
            "estimated_diameter_max": 269.1689931548
        }
    },
    "is_potentially_hazardous_asteroid": false,
    "close_approach_data": [
        {
            "close_approach_date": "2017-11-30",
            "close_approach_date_full": "2017-Nov-30 11:02",
            "epoch_date_close_approach": 1512039720000,
            "relative_velocity": {
                "kilometers_per_second": "16.7600416112",
                "kilometers_per_hour": "60336.1498004039",
                "miles_per_hour": "37490.5370801454"
            },
            "miss_distance": {
                "astronomical": "0.016422035",
                "lunar": "6.388171615",
                "kilometers": "2456701.45706545",
                "miles": "1526523.49958521"
            },
            "orbiting_body": "Earth"
        },
        {
            "close_approach_date": "2018-05-02",
            "close_approach_date_full": "2018-May-02 20:21",
            "epoch_date_close_approach": 1525292460000,
            "relative_velocity": {
                "kilometers_per_second": "16.1232725404",
                "kilometers_per_hour": "58043.7811454832",
                "miles_per_hour": "36066.1483456476"
            },
            "miss_distance": {
                "astronomical": "0.0627597687",
                "lunar": "24.4135500243",
                "kilometers": "9388727.719212669",
                "miles": "5833884.8838820722"
            },
            "orbiting_body": "Mars"
        },
        {
            "close_approach_date": "2022-05-05",
            "close_approach_date_full": "2022-May-05 12:18",
            "epoch_date_close_approach": 1651753080000,
            "relative_velocity": {
                "kilometers_per_second": "17.0942056493",
                "kilometers_per_hour": "61539.1403376064",
                "miles_per_hour": "38238.0286169977"
            },
            "miss_distance": {
                "astronomical": "0.1361274573",
                "lunar": "52.9535808897",
                "kilometers": "20364377.660595951",
                "miles": "12653837.5120520838"
            },
            "orbiting_body": "Earth"
        }
    ],
    "orbital_data": {
        "orbit_id": "7",
        "orbit_determination_date": "2017-12-03 06:17:06",
        "first_observation_date": "2017-11-18",
        "last_observation_date": "2017-11-30",
        "data_arc_in_days": 12,
        "observations_used": 36,
        "orbit_uncertainty": "8",
        "minimum_orbit_intersection": ".00172389",
        "jupiter_tisserand_invariant": "4.100",
        "epoch_osculation": "2458078.5",
        "eccentricity": ".5412639036536094",
        "semi_major_axis": "1.630770277352422",
        "inclination": "14.9250440252886",
        "ascending_node_longitude": "68.93612225098401",
        "orbital_period": "760.6547960007626",
        "perihelion_distance": ".7480931910703708",
        "perihelion_argument": "72.21003167417138",
        "aphelion_distance": "2.513447363634473",
        "perihelion_time": "2458134.442182484573",
        "mean_anomaly": "333.523882580731",
        "mean_motion": ".4732764479928935",
        "equinox": "J2000",
        "orbit_class": {
            "orbit_class_type": "APO",
            "orbit_class_description": "Near-Earth asteroid orbits which cross the Earth’s orbit similar to that of 1862 Apollo",
            "orbit_class_range": "a (semi-major axis) > 1.0 AU; q (perihelion) < 1.017 AU"
        }
    },
    "is_sentry_object": false
}